#
# this file is automatically produced by convkeps.pl
#
# Last update: Mon Feb 13 18:13:05 2006
#

package Sun;

%keps = (
  'NOAA-10' => {
    epoch => '6033.47748887',
    elset => 80,
    number => 86073,
    bstar => '4.6675e-05',
    mm1 => '6.9e-07',
    inclination => '98.7647',
    raan => '44.7965',
    mm2 => 0,
    eccentricity => '0.0012479',
    argperigee => '179.3258',
    orbit => 794,
    meanmotion => '14.272848',
    meananomaly => '180.7948',
    id => 16969
  },
  'AO-40' => {
    elset => 677,
    epoch => '6043.55475449',
    bstar => '0.0001',
    number => 72,
    inclination => '7.3171',
    mm1 => '-2.3e-06',
    raan => '255.726',
    eccentricity => '0.7918285',
    mm2 => 0,
    argperigee => '131.187',
    orbit => 2428,
    meanmotion => '1.25583508',
    id => 26609,
    meananomaly => '329.6747'
  },
  HUBBLE => {
    epoch => '6033.6271049',
    elset => 537,
    number => 90037,
    bstar => '2.0381e-05',
    mm1 => '4.26e-06',
    inclination => '28.4651',
    raan => '207.0139',
    mm2 => 0,
    eccentricity => '0.0004206',
    argperigee => '197.9472',
    orbit => 66487,
    meanmotion => '14.99957911',
    meananomaly => '162.096',
    id => 20580
  },
  ISS => {
    epoch => '6033.92501278',
    elset => 274,
    number => 98067,
    bstar => '8.7171e-05',
    mm1 => '0.00012329',
    inclination => '51.6439',
    raan => '157.9454',
    mm2 => 0,
    eccentricity => '0.0009122',
    argperigee => '227.1982',
    orbit => 41200,
    meanmotion => '15.7443497',
    meananomaly => '234.5101',
    id => 25544
  },
  'VO-52' => {
    elset => 253,
    epoch => '6044.1504263',
    bstar => '-3.2202e-06',
    number => 5017,
    inclination => '97.8842',
    mm1 => '-7.8e-07',
    raan => '119.3327',
    eccentricity => '0.0028381',
    mm2 => 0,
    argperigee => '46.2401',
    orbit => 4202,
    meanmotion => '14.81047826',
    id => 28650,
    meananomaly => '314.1179'
  },
  'SO-33' => {
    elset => 579,
    epoch => '6043.87502158',
    bstar => '-1.3549e-05',
    number => 98061,
    inclination => '31.4285',
    mm1 => '-1.2e-07',
    raan => '112.0422',
    eccentricity => '0.0355089',
    mm2 => 0,
    argperigee => '109.8747',
    orbit => 38125,
    meanmotion => '14.28074202',
    id => 25509,
    meananomaly => '254.0498'
  },
  'MET-2/21' => {
    elset => '441',
    epoch => '2317.62602189',
    bstar => '9.6316e-05',
    number => '93055',
    mm1 => '1.21e-06',
    inclination => '82.5462',
    raan => '291.7858',
    mm2 => '0',
    eccentricity => '0.0020945',
    argperigee => '257.4574',
    orbit => '46468',
    meanmotion => '13.83519672',
    id => '22782',
    meananomaly => '102.4265'
  },
  'NO-45' => {
    elset => 240,
    epoch => '6043.82839029',
    bstar => '-6.239e-05',
    number => 1043,
    inclination => '67.0595',
    mm1 => '-2.42e-06',
    raan => '327.681',
    eccentricity => '0.0006943',
    mm2 => 0,
    argperigee => '287.3773',
    orbit => 22819,
    meanmotion => '14.29514447',
    id => 26932,
    meananomaly => '72.6575'
  },
  'NOAA-14' => {
    epoch => '6033.46690783',
    elset => 979,
    number => 94089,
    bstar => '5.3389e-05',
    mm1 => '5.5e-07',
    inclination => '99.0581',
    raan => '90.1834',
    mm2 => 0,
    eccentricity => '0.0010006',
    argperigee => '73.154',
    orbit => 57203,
    meanmotion => '14.13633482',
    meananomaly => '287.0709',
    id => 23455
  },
  'RS-22' => {
    elset => 822,
    epoch => '6043.16632538',
    bstar => '1.3462e-05',
    number => 3042,
    inclination => '98.1036',
    mm1 => '2.2e-07',
    raan => '294.8129',
    eccentricity => '0.001431',
    mm2 => 0,
    argperigee => '20.9459',
    orbit => 12702,
    meanmotion => '14.62966027',
    id => 27939,
    meananomaly => '339.233'
  },
  'AO-27' => {
    elset => 331,
    epoch => '6042.98725566',
    bstar => '3.2821e-05',
    number => 93061,
    inclination => '98.27',
    mm1 => '4.2e-07',
    raan => '31.0362',
    eccentricity => '0.0007619',
    mm2 => 0,
    argperigee => '276.0295',
    orbit => 64547,
    meanmotion => '14.29162198',
    id => 22825,
    meananomaly => '84.0015'
  },
  'AO-07' => {
    epoch => '6032.75507474',
    elset => 555,
    number => 74089,
    bstar => '0.0001',
    mm1 => '-2.8e-07',
    inclination => '101.5919',
    raan => '78.9684',
    mm2 => 0,
    eccentricity => '0.0012116',
    argperigee => '149.1255',
    orbit => 42841,
    meanmotion => '12.53571784',
    meananomaly => '211.0532',
    id => 7530
  },
  'AO-51' => {
    elset => 459,
    epoch => '6044.02073628',
    bstar => '1.9661e-05',
    number => 4025,
    inclination => '98.1846',
    mm1 => '2.2e-07',
    raan => '101.6148',
    eccentricity => '0.0083131',
    mm2 => 0,
    argperigee => '223.2592',
    orbit => 8528,
    meanmotion => '14.40504095',
    id => 28375,
    meananomaly => '136.2048'
  },
  'FO-20' => {
    elset => 142,
    epoch => '6044.0484842',
    bstar => '-2.6478e-05',
    number => 90013,
    inclination => '99.0491',
    mm1 => '-4.1e-07',
    raan => '177.8001',
    eccentricity => '0.0540708',
    mm2 => 0,
    argperigee => '53.886',
    orbit => 75039,
    meanmotion => '12.83349206',
    id => 20480,
    meananomaly => '311.1037'
  },
  'LO-19' => {
    elset => 609,
    epoch => '6043.59300341',
    bstar => '1.2735e-05',
    number => 90005,
    inclination => '98.2019',
    mm1 => '-6e-08',
    raan => '69.8619',
    eccentricity => '0.0011247',
    mm2 => 0,
    argperigee => '202.4335',
    orbit => 83862,
    meanmotion => '14.31954152',
    id => 20442,
    meananomaly => '157.6371'
  },
  'MO-46' => {
    elset => 412,
    epoch => '6043.82357389',
    bstar => '1.7757e-05',
    number => 57,
    inclination => '64.5568',
    mm1 => '-7e-08',
    raan => '256.3805',
    eccentricity => '0.0052063',
    mm2 => 0,
    argperigee => '264.523',
    orbit => 29096,
    meanmotion => '14.82911924',
    id => 26548,
    meananomaly => '94.9901'
  },
  NCUBE2 => {
    epoch => '6033.24794707',
    elset => 23,
    number => 5043,
    bstar => '4.7782e-05',
    mm1 => '1.8e-06',
    inclination => '98.1787',
    raan => '293.5821',
    mm2 => 0,
    eccentricity => '0.0016139',
    argperigee => '233.9305',
    orbit => 644,
    meanmotion => '14.59508892',
    meananomaly => '126.0401',
    id => 28897
  },
  'UO-36' => {
    elset => 966,
    epoch => '6043.72291333',
    bstar => '1.7933e-06',
    number => 99021,
    inclination => '64.5582',
    mm1 => '-1.26e-06',
    raan => '264.9889',
    eccentricity => '0.0004139',
    mm2 => 0,
    argperigee => '325.8335',
    orbit => 36738,
    meanmotion => '14.78575571',
    id => 25693,
    meananomaly => '34.2455'
  },
  'AO-16' => {
    elset => 673,
    epoch => '6044.10076294',
    bstar => '7.1138e-06',
    number => 90005,
    inclination => '98.1951',
    mm1 => '-2.2e-07',
    raan => '60.9934',
    eccentricity => '0.0010509',
    mm2 => 0,
    argperigee => '200.0547',
    orbit => 83856,
    meanmotion => '14.3170972',
    id => 20439,
    meananomaly => '160.0232'
  },
  'AO-49' => {
    elset => 965,
    epoch => '6044.14910812',
    bstar => '1.456e-05',
    number => 2058,
    inclination => '64.5587',
    mm1 => '-4.7e-07',
    raan => '122.6727',
    eccentricity => '0.0058072',
    mm2 => 0,
    argperigee => '187.0389',
    orbit => 16932,
    meanmotion => '14.72178093',
    id => 27605,
    meananomaly => '172.9909'
  },
  'RS-12/13' => {
    elset => '483',
    epoch => '2317.86219977',
    bstar => '0.00012201',
    number => '91007',
    mm1 => '1.31e-06',
    inclination => '82.9216',
    raan => '253.1195',
    mm2 => '0',
    eccentricity => '0.0028208',
    argperigee => '192.8707',
    orbit => '59050',
    meanmotion => '13.74391092',
    id => '21089',
    meananomaly => '167.1731'
  },
  'UO-14' => {
    elset => '95',
    epoch => '2318.65092874',
    bstar => '0.00015557',
    number => '90005',
    mm1 => '3.7e-06',
    inclination => '98.2873',
    raan => '1.782',
    mm2 => '0',
    eccentricity => '0.0011296',
    argperigee => '122.4492',
    orbit => '66877',
    meanmotion => '14.31190742',
    id => '20437',
    meananomaly => '237.7782'
  },
  'OO-38' => {
    elset => 543,
    epoch => '6043.3436078',
    bstar => '-6.2235e-06',
    number => 4,
    inclination => '100.1905',
    mm1 => '-7.7e-07',
    raan => '311.9215',
    eccentricity => '0.0037275',
    mm2 => 0,
    argperigee => '98.635',
    orbit => 31675,
    meanmotion => '14.35752678',
    id => 26063,
    meananomaly => '261.9066'
  },
  'FO-29' => {
    elset => 157,
    epoch => '6043.11430045',
    bstar => '1.5473e-05',
    number => 96046,
    inclination => '98.5162',
    mm1 => '-2.3e-07',
    raan => '64.9154',
    eccentricity => '0.0349868',
    mm2 => 0,
    argperigee => '274.2848',
    orbit => 46863,
    meanmotion => '13.52918866',
    id => 24278,
    meananomaly => '81.8411'
  },
  'UWE-1' => {
    epoch => '6033.8087692',
    elset => 338,
    number => 5043,
    bstar => '4.8638e-05',
    mm1 => '1.83e-06',
    inclination => '98.1799',
    raan => '294.0992',
    mm2 => 0,
    eccentricity => '0.001655',
    argperigee => '228.8919',
    orbit => 1437,
    meanmotion => '14.59299865',
    meananomaly => '131.0849',
    id => 28892
  },
  'AO-7' => {
    elset => 540,
    epoch => '6043.52894729',
    bstar => '0.0001',
    number => 74089,
    inclination => '101.5916',
    mm1 => '-2.8e-07',
    raan => '89.4904',
    eccentricity => '0.0012086',
    mm2 => 0,
    argperigee => '128.1277',
    orbit => 42976,
    meanmotion => '12.53571983',
    id => 7530,
    meananomaly => '232.0887'
  },
  'NO-44' => {
    elset => 231,
    epoch => '6043.8756161',
    bstar => '3.3516e-06',
    number => 1043,
    inclination => '67.0545',
    mm1 => '-7.4e-07',
    raan => '327.8736',
    eccentricity => '0.0006915',
    mm2 => 0,
    argperigee => '273.0934',
    orbit => 22816,
